{
  "type": "FeatureCollection",
  "features": [
    {
      "type": "Feature",
      "properties": { "name": "JR Yamanote Line", "color": "#81C147" },
      "geometry": {
        "type": "LineString",
        "coordinates": [
          [139.7016, 35.6580], [139.7005, 35.6896], [139.7034, 35.7008],
          [139.7101, 35.7289], [139.7394, 35.7334], [139.7712, 35.7281], 
          [139.7772, 35.7138], [139.7730, 35.6983], [139.7671, 35.6812], 
          [139.7583, 35.6664], [139.7388, 35.6284], [139.7284, 35.6198], 
          [139.7101, 35.6467], [139.7016, 35.6580]
        ]
      }
    },
    {
      "type": "Feature",
      "properties": { "name": "JR Chuo Line (Rapid)", "color": "#F15A22" },
      "geometry": {
        "type": "LineString",
        "coordinates": [
          [139.6657, 35.7053], [139.7005, 35.6896], [139.7306, 35.6860], 
          [139.7628, 35.6996], [139.7706, 35.6918], [139.7671, 35.6812]
        ]
      }
    },
    {
      "type": "Feature",
      "properties": { "name": "Tokyo Metro Ginza Line", "color": "#F39700" },
      "geometry": {
        "type": "LineString",
        "coordinates": [
          [139.7016, 35.6580], [139.7122, 35.6652], [139.7259, 35.6721], 
          [139.7423, 35.6670], [139.7570, 35.6663], [139.7646, 35.6720],
          [139.7731, 35.6863], [139.7730, 35.6983], [139.7772, 35.7138], 
          [139.7976, 35.7107]
        ]
      }
    },
    {
      "type": "Feature",
      "properties": { "name": "Tokyo Metro Marunouchi Line", "color": "#E60012" },
      "geometry": {
        "type": "LineString",
        "coordinates": [
          [139.6200, 35.7040], [139.6660, 35.6980], [139.7005, 35.6920], 
          [139.7360, 35.6750], [139.7630, 35.6720], [139.7671, 35.6812], 
          [139.7610, 35.7040], [139.7110, 35.7290]
        ]
      }
    },
    {
      "type": "Feature",
      "properties": { "name": "Tokyo Metro Hibiya Line", "color": "#B5B5AC" },
      "geometry": {
        "type": "LineString",
        "coordinates": [
          [139.6990, 35.6440], [139.7160, 35.6500], [139.7320, 35.6630], 
          [139.7480, 35.6660], [139.7630, 35.6720], [139.7770, 35.6800], 
          [139.7730, 35.6980], [139.7772, 35.7138], [139.7910, 35.7330], 
          [139.8040, 35.7490]
        ]
      }
    },
    {
      "type": "Feature",
      "properties": { "name": "Tokyo Metro Hanzomon Line", "color": "#8F76D6" },
      "geometry": {
        "type": "LineString",
        "coordinates": [
          [139.7016, 35.6580], [139.7122, 35.6652], [139.7260, 35.6760], 
          [139.7440, 35.6820], [139.7630, 35.6860], [139.7740, 35.6840], 
          [139.7980, 35.6970], [139.8130, 35.7100]
        ]
      }
    },
    {
      "type": "Feature",
      "properties": { "name": "JR Chuo-Sobu Line (Local)", "color": "#FFD300" },
      "geometry": {
        "type": "LineString",
        "coordinates": [
          [139.5590, 35.7020], [139.6657, 35.7053], [139.7005, 35.6900], 
          [139.7480, 35.7000], [139.7730, 35.6980], [139.8140, 35.6960], 
          [139.8820, 35.7170]
        ]
      }
    },
    {
      "type": "Feature",
      "properties": { "name": "JR Keihin-Tohoku Line", "color": "#00B2E5" },
      "geometry": {
        "type": "LineString",
        "coordinates": [
          [139.7230, 35.8270], [139.7320, 35.7520], [139.7772, 35.7138], 
          [139.7710, 35.6980], [139.7671, 35.6812], [139.7580, 35.6630], 
          [139.7388, 35.6280], [139.7170, 35.5870], [139.6980, 35.5620]
        ]
      }
    }
  ]
}